QIANFAN-17              
1 60395U 24140S   25287.63020635 -.00000056  00000+0 -10513-3 0  9998
2 60395  88.9751 305.5584 0015668  24.0227 336.1651 13.50972654 60155
QIANFAN-18              
1 60396U 24140T   25289.16499568  .00000065  00000+0  82298-4 0  9992
2 60396  88.9745 304.9374 0014229   3.5262 356.5987 13.50974776 59751
QIANFAN-19              
1 61552U 24185A   25289.20369649  .00000792  00000+0  40827-3 0  9995
2 61552  88.9770  84.5300 0008797 121.7498 238.4547 14.14201631 61534
QIANFAN-20              
1 61553U 24185B   25289.15576333  .00000890  00000+0  50826-3 0  9999
2 61553  88.9767  84.8014 0006574 151.2373 208.9174 14.08751656 61388
QIANFAN-21              
1 61554U 24185C   25289.14108983  .00001163  00000+0  51527-3 0  9994
2 61554  88.9686  83.7215 0010587 179.6824 180.4376 14.22483054 61786
QIANFAN-22              
1 61555U 24185D   25289.19050720  .00000291  00000+0  24042-3 0  9998
2 61555  88.9752  85.5477 0007318 156.2286 203.9224 13.86271632 60960
QIANFAN-23              
1 61556U 24185E   25289.18952995  .00001067  00000+0  53216-3 0  9990
2 61556  88.9763  84.3682 0009347 132.2671 227.9311 14.16197362 61600
QIANFAN-24              
1 61557U 24185F   25289.19249267  .00001271  00000+0  55078-3 0  9998
2 61557  88.9745  83.8669 0011490 120.3999 239.8330 14.23690389 61836
